{
  "type": "FeatureCollection",
  "features": [
    {
      "type": "Feature",
      "properties": {
        "norad_id": 31829,
        "name": "FENGYUN 1C DEB",
        "group": "fengyun-1c-debris",
        "lat": 12.164140461429533,
        "lon": 168.46778650395396,
        "alt_km": 979.788145393718,
        "timestamp": "2025-12-27T07:26:25.506054+00:00",
        "meta_object_name": "FENGYUN 1C DEB",
        "meta_object_id": "1999-025CHT",
        "meta_epoch": "2025-12-26T17:38:56.444064",
        "meta_mean_motion": 13.88698246,
        "meta_eccentricity": 0.01693966,
        "meta_inclination": 98.8358,
        "meta_ra_of_asc_node": 169.8443,
        "meta_arg_of_pericenter": 126.4059,
        "meta_mean_anomaly": 256.5708,
        "meta_ephemeris_type": 0,
        "meta_classification_type": "U",
        "meta_norad_cat_id": 31829,
        "meta_element_set_no": 999,
        "meta_rev_at_epoch": 94342,
        "meta_bstar": 0.00037931348,
        "meta_mean_motion_dot": 4.73e-06,
        "meta_mean_motion_ddot": 0,
        "tle_line1": "1 31829U 99025CHT 25360.73537551  .00000473  00000+0  37931-3 0  9999",
        "tle_line2": "2 31829  98.8358 169.8443 0169396 126.4059 256.5708 13.88698246943422"
      },
      "geometry": {
        "type": "Point",
        "coordinates": [
          168.46778650395396,
          12.164140461429533
        ]
      }
    },
    {
      "type": "Feature",
      "properties": {
        "norad_id": 31830,
        "name": "FENGYUN 1C DEB",
        "group": "fengyun-1c-debris",
        "lat": 69.84349819562888,
        "lon": -47.2858825592382,
        "alt_km": 1075.976533948241,
        "timestamp": "2025-12-27T07:26:25.506063+00:00",
        "meta_object_name": "FENGYUN 1C DEB",
        "meta_object_id": "1999-025CHU",
        "meta_epoch": "2025-12-24T06:08:59.338176",
        "meta_mean_motion": 13.83469721,
        "meta_eccentricity": 0.01836759,
        "meta_inclination": 99.1628,
        "meta_ra_of_asc_node": 103.6538,
        "meta_arg_of_pericenter": 283.5033,
        "meta_mean_anomaly": 103.7457,
        "meta_ephemeris_type": 0,
        "meta_classification_type": "U",
        "meta_norad_cat_id": 31830,
        "meta_element_set_no": 999,
        "meta_rev_at_epoch": 92899,
        "meta_bstar": 0.0020237075,
        "meta_mean_motion_dot": 2.494e-05,
        "meta_mean_motion_ddot": 0,
        "tle_line1": "1 31830U 99025CHU 25358.25624234  .00002494  00000+0  20237-2 0  9995",
        "tle_line2": "2 31830  99.1628 103.6538 0183675 283.5033 103.7457 13.83469721928990"
      },
      "geometry": {
        "type": "Point",
        "coordinates": [
          -47.2858825592382,
          69.84349819562888
        ]
      }
    },
    {
      "type": "Feature",
      "properties": {
        "norad_id": 31834,
        "name": "FENGYUN 1C DEB",
        "group": "fengyun-1c-debris",
        "lat": -27.17618623803497,
        "lon": 36.01900988370268,
        "alt_km": 1004.8410674863544,
        "timestamp": "2025-12-27T07:26:25.506073+00:00",
        "meta_object_name": "FENGYUN 1C DEB",
        "meta_object_id": "1999-025CHY",
        "meta_epoch": "2025-12-24T20:16:32.664000",
        "meta_mean_motion": 14.03164507,
        "meta_eccentricity": 0.01622839,
        "meta_inclination": 98.3667,
        "meta_ra_of_asc_node": 218.0839,
        "meta_arg_of_pericenter": 43.5121,
        "meta_mean_anomaly": 317.872,
        "meta_ephemeris_type": 0,
        "meta_classification_type": "U",
        "meta_norad_cat_id": 31834,
        "meta_element_set_no": 999,
        "meta_rev_at_epoch": 63880,
        "meta_bstar": 0.00036532336,
        "meta_mean_motion_dot": 6.01e-06,
        "meta_mean_motion_ddot": 0,
        "tle_line1": "1 31834U 99025CHY 25358.84482250  .00000601  00000+0  36532-3 0  9998",
        "tle_line2": "2 31834  98.3667 218.0839 0162283  43.5121 317.8720 14.03164507638803"
      },
      "geometry": {
        "type": "Point",
        "coordinates": [
          36.01900988370268,
          -27.17618623803497
        ]
      }
    },
    {
      "type": "Feature",
      "properties": {
        "norad_id": 31837,
        "name": "FENGYUN 1C DEB",
        "group": "fengyun-1c-debris",
        "lat": -58.47026129880888,
        "lon": 90.4582980598682,
        "alt_km": 572.0715523818999,
        "timestamp": "2025-12-27T07:26:25.506086+00:00",
        "meta_object_name": "FENGYUN 1C DEB",
        "meta_object_id": "1999-025CJB",
        "meta_epoch": "2025-12-18T11:29:15.674496",
        "meta_mean_motion": 14.82330224,
        "meta_eccentricity": 0.00931656,
        "meta_inclination": 98.1015,
        "meta_ra_of_asc_node": 68.0911,
        "meta_arg_of_pericenter": 359.156,
        "meta_mean_anomaly": 0.9481,
        "meta_ephemeris_type": 0,
        "meta_classification_type": "U",
        "meta_norad_cat_id": 31837,
        "meta_element_set_no": 999,
        "meta_rev_at_epoch": 98444,
        "meta_bstar": 0.00086076485,
        "meta_mean_motion_dot": 7.369e-05,
        "meta_mean_motion_ddot": 0,
        "tle_line1": "1 31837U 99025CJB 25352.47865364  .00007369  00000+0  86076-3 0  9991",
        "tle_line2": "2 31837  98.1015  68.0911 0093165 359.1560   0.9481 14.82330224984446"
      },
      "geometry": {
        "type": "Point",
        "coordinates": [
          90.4582980598682,
          -58.47026129880888
        ]
      }
    },
    {
      "type": "Feature",
      "properties": {
        "norad_id": 31838,
        "name": "FENGYUN 1C DEB",
        "group": "fengyun-1c-debris",
        "lat": -40.20811161578785,
        "lon": -135.64091470785314,
        "alt_km": 854.7540362592763,
        "timestamp": "2025-12-27T07:26:25.506097+00:00",
        "meta_object_name": "FENGYUN 1C DEB",
        "meta_object_id": "1999-025CJC",
        "meta_epoch": "2025-12-17T08:26:31.079040",
        "meta_mean_motion": 14.21147066,
        "meta_eccentricity": 0.00383301,
        "meta_inclination": 98.7181,
        "meta_ra_of_asc_node": 41.9841,
        "meta_arg_of_pericenter": 82.4051,
        "meta_mean_anomaly": 338.6922,
        "meta_ephemeris_type": 0,
        "meta_classification_type": "U",
        "meta_norad_cat_id": 31838,
        "meta_element_set_no": 999,
        "meta_rev_at_epoch": 64642,
        "meta_bstar": 0.00054487511,
        "meta_mean_motion_dot": 1.15e-05,
        "meta_mean_motion_ddot": 0,
        "tle_line1": "1 31838U 99025CJC 25351.35174860  .00001150  00000+0  54488-3 0  9996",
        "tle_line2": "2 31838  98.7181  41.9841 0038330  82.4051 338.6922 14.21147066646420"
      },
      "geometry": {
        "type": "Point",
        "coordinates": [
          -135.64091470785314,
          -40.20811161578785
        ]
      }
    },
    {
      "type": "Feature",
      "properties": {
        "norad_id": 31841,
        "name": "FENGYUN 1C DEB",
        "group": "fengyun-1c-debris",
        "lat": -75.57961329960071,
        "lon": -46.15408716691027,
        "alt_km": 665.5068066329013,
        "timestamp": "2025-12-27T07:26:25.506115+00:00",
        "meta_object_name": "FENGYUN 1C DEB",
        "meta_object_id": "1999-025CJF",
        "meta_epoch": "2025-12-20T17:06:06.055776",
        "meta_mean_motion": 14.03626742,
        "meta_eccentricity": 0.03086895,
        "meta_inclination": 98.4167,
        "meta_ra_of_asc_node": 162.8817,
        "meta_arg_of_pericenter": 282.8098,
        "meta_mean_anomaly": 136.7596,
        "meta_ephemeris_type": 0,
        "meta_classification_type": "U",
        "meta_norad_cat_id": 31841,
        "meta_element_set_no": 999,
        "meta_rev_at_epoch": 59451,
        "meta_bstar": 0.0011379131,
        "meta_mean_motion_dot": 2.684e-05,
        "meta_mean_motion_ddot": 0,
        "tle_line1": "1 31841U 99025CJF 25354.71257009  .00002684  00000+0  11379-2 0  9994",
        "tle_line2": "2 31841  98.4167 162.8817 0308689 282.8098 136.7596 14.03626742594514"
      },
      "geometry": {
        "type": "Point",
        "coordinates": [
          -46.15408716691027,
          -75.57961329960071
        ]
      }
    },
    {
      "type": "Feature",
      "properties": {
        "norad_id": 31843,
        "name": "FENGYUN 1C DEB",
        "group": "fengyun-1c-debris",
        "lat": 40.3040759508499,
        "lon": -67.22223270017014,
        "alt_km": 1037.8727205619034,
        "timestamp": "2025-12-27T07:26:25.506130+00:00",
        "meta_object_name": "FENGYUN 1C DEB",
        "meta_object_id": "1999-025CJH",
        "meta_epoch": "2025-12-24T01:51:32.353920",
        "meta_mean_motion": 13.34098922,
        "meta_eccentricity": 0.0638989,
        "meta_inclination": 99.2841,
        "meta_ra_of_asc_node": 297.7981,
        "meta_arg_of_pericenter": 326.1893,
        "meta_mean_anomaly": 29.9986,
        "meta_ephemeris_type": 0,
        "meta_classification_type": "U",
        "meta_norad_cat_id": 31843,
        "meta_element_set_no": 999,
        "meta_rev_at_epoch": 64847,
        "meta_bstar": 0.0068044238,
        "meta_mean_motion_dot": 0.00010896,
        "meta_mean_motion_ddot": 0,
        "tle_line1": "1 31843U 99025CJH 25358.07745780  .00010896  00000+0  68044-2 0  9992",
        "tle_line2": "2 31843  99.2841 297.7981 0638989 326.1893  29.9986 13.34098922648475"
      },
      "geometry": {
        "type": "Point",
        "coordinates": [
          -67.22223270017014,
          40.3040759508499
        ]
      }
    }
  ]
}